GORIZONT 33             
1 26372U 00029A   26095.56343088 -.00000125  00000+0  00000+0 0  9997
2 26372  13.8406   7.3320 0002549 266.0082 203.1145  1.00150489 94707
FENGYUN 2B              
1 26382U 00032A   26094.99489138  .00000061  00000+0  00000+0 0  9993
2 26382  13.2002  17.4441 0003827 298.8627 252.2875  1.00094930 94194
TDRS 8                  
1 26388U 00034A   26095.56372288 -.00000192  00000+0  00000+0 0  9998
2 26388  12.5711  31.9293 0005836 330.3278 119.4109  1.00270338 94452
COSMOS 2371             
1 26394U 00036A   26094.83274170 -.00000071  00000+0  00000+0 0  9993
2 26394  13.9529   8.0562 0001539 200.3396 355.6766  1.00265815 94309
SL-12 R/B(2)            
1 26397U 00036D   26095.03030898  .00000000  00000+0  00000+0 0  9997
2 26397  13.9235   7.9317 0016586  72.1044 129.7738  1.00200902 46598
FENGYUN 2B AKM          
1 26460U 00032C   26095.00050169 -.00000034  00000+0  00000+0 0  9992
2 26460  14.3945   6.8127 0023440  38.3297 321.7988  1.00200980121456
RADUGA-1 5              
1 26477U 00049A   26095.56992502 -.00000302  00000+0  00000+0 0  9993
2 26477  13.9269   8.6060 0001736  29.3900  99.6053  1.00229955 93690
NSS-11                  
1 26554U 00059A   26095.53100208  .00000027  00000+0  00000+0 0  9994
2 26554   1.9390  82.2296 0003160 297.0832 181.6740  1.00271996 40563
USA 153                 
1 26575U 00065A   26095.19003067 -.00000321  00000+0  00000+0 0  9999
2 26575  11.5011  36.0161 0003545  20.5118 339.8869  1.00274331 32199
AMC-6                   
1 26580U 00067A   26095.50432486  .00000090  00000+0  00000+0 0  9995
2 26580   0.0636  59.0249 0003680 329.7793 211.5009  1.00270230 93166
USA 157 (MILSTAR-2 2)   
1 26715U 01009A   26095.48908777  .00000111  00000+0  00000+0 0  9994
2 26715  11.4641  20.2073 0037469 181.6456  18.0076  1.00268177 32216
TITAN 4 CENTAUR R/B     
1 26716U 01009B   26090.60863471 -.00000246  00000+0  00000+0 0  9995
2 26716  12.5690  12.8598 0013543 143.8283 216.2324  1.00465344 25470
IUS R/B(2)              
1 26883U 01033D   26094.65584762 -.00000293  00000+0  00000+0 0  9991
2 26883  12.8536  17.2403 0007211   4.6960 355.2658  0.99897006 25051
COSMOS 2379             
1 26892U 01037A   26094.60059808 -.00000351  00000+0  00000+0 0  9993
2 26892  13.2009  14.8153 0005863 246.4407 276.9314  1.00306619 90125
SL-12 R/B(2)            
1 26895U 01037D   26095.56562662 -.00000202  00000+0  00000+0 0  9994
2 26895  13.1966  15.0366 0019835  77.3336  32.4654  1.00186763 90076
INTELSAT 902 (IS-902)   
1 26900U 01039A   26095.27761272 -.00000280  00000+0  00000+0 0  9995
2 26900   5.9343  72.6579 0004478 299.8835 230.8896  1.00271510 89961
SL-12 R/B(2)            
1 26939U 01045D   26094.83246323 -.00000077  00000+0  00000+0 0  9994
2 26939  13.8329  12.6409 0026343  26.4454 166.9940  1.00208583 89999
