[{"OBJECT_NAME":"GORIZONT 33","OBJECT_ID":"2000-029A","EPOCH":"2026-04-05T13:31:20.428032","MEAN_MOTION":1.00150489,"ECCENTRICITY":0.00025494,"INCLINATION":13.8406,"RA_OF_ASC_NODE":7.332,"ARG_OF_PERICENTER":266.0082,"MEAN_ANOMALY":203.1145,"EPHEMERIS_TYPE":0,"CLASSIFICATION_TYPE":"U","NORAD_CAT_ID":26372,"ELEMENT_SET_NO":999,"REV_AT_EPOCH":9470,"BSTAR":0,"MEAN_MOTION_DOT":-1.25e-6,"MEAN_MOTION_DDOT":0},{"OBJECT_NAME":"FENGYUN 2B","OBJECT_ID":"2000-032A","EPOCH":"2026-04-04T23:52:38.615232","MEAN_MOTION":1.0009493,"ECCENTRICITY":0.00038276,"INCLINATION":13.2002,"RA_OF_ASC_NODE":17.4441,"ARG_OF_PERICENTER":298.8627,"MEAN_ANOMALY":252.2875,"EPHEMERIS_TYPE":0,"CLASSIFICATION_TYPE":"U","NORAD_CAT_ID":26382,"ELEMENT_SET_NO":999,"REV_AT_EPOCH":9419,"BSTAR":0,"MEAN_MOTION_DOT":6.1e-7,"MEAN_MOTION_DDOT":0},{"OBJECT_NAME":"TDRS 8","OBJECT_ID":"2000-034A","EPOCH":"2026-04-05T13:31:45.656832","MEAN_MOTION":1.00270338,"ECCENTRICITY":0.00058363,"INCLINATION":12.5711,"RA_OF_ASC_NODE":31.9293,"ARG_OF_PERICENTER":330.3278,"MEAN_ANOMALY":119.4109,"EPHEMERIS_TYPE":0,"CLASSIFICATION_TYPE":"U","NORAD_CAT_ID":26388,"ELEMENT_SET_NO":999,"REV_AT_EPOCH":9445,"BSTAR":0,"MEAN_MOTION_DOT":-1.92e-6,"MEAN_MOTION_DDOT":0},{"OBJECT_NAME":"COSMOS 2371","OBJECT_ID":"2000-036A","EPOCH":"2026-04-04T19:59:08.882880","MEAN_MOTION":1.00265815,"ECCENTRICITY":0.00015392,"INCLINATION":13.9529,"RA_OF_ASC_NODE":8.0562,"ARG_OF_PERICENTER":200.3396,"MEAN_ANOMALY":355.6766,"EPHEMERIS_TYPE":0,"CLASSIFICATION_TYPE":"U","NORAD_CAT_ID":26394,"ELEMENT_SET_NO":999,"REV_AT_EPOCH":9430,"BSTAR":0,"MEAN_MOTION_DOT":-7.1e-7,"MEAN_MOTION_DDOT":0},{"OBJECT_NAME":"SL-12 R/B(2)","OBJECT_ID":"2000-036D","EPOCH":"2026-04-05T00:43:38.695872","MEAN_MOTION":1.00200902,"ECCENTRICITY":0.00165861,"INCLINATION":13.9235,"RA_OF_ASC_NODE":7.9317,"ARG_OF_PERICENTER":72.1044,"MEAN_ANOMALY":129.7738,"EPHEMERIS_TYPE":0,"CLASSIFICATION_TYPE":"U","NORAD_CAT_ID":26397,"ELEMENT_SET_NO":999,"REV_AT_EPOCH":4659,"BSTAR":0,"MEAN_MOTION_DOT":0,"MEAN_MOTION_DDOT":0},{"OBJECT_NAME":"FENGYUN 2B AKM","OBJECT_ID":"2000-032C","EPOCH":"2026-04-05T00:00:43.346016","MEAN_MOTION":1.0020098,"ECCENTRICITY":0.00234404,"INCLINATION":14.3945,"RA_OF_ASC_NODE":6.8127,"ARG_OF_PERICENTER":38.3297,"MEAN_ANOMALY":321.7988,"EPHEMERIS_TYPE":0,"CLASSIFICATION_TYPE":"U","NORAD_CAT_ID":26460,"ELEMENT_SET_NO":999,"REV_AT_EPOCH":12145,"BSTAR":0,"MEAN_MOTION_DOT":-3.4e-7,"MEAN_MOTION_DDOT":0},{"OBJECT_NAME":"RADUGA-1 5","OBJECT_ID":"2000-049A","EPOCH":"2026-04-05T13:40:41.521728","MEAN_MOTION":1.00229955,"ECCENTRICITY":0.00017362,"INCLINATION":13.9269,"RA_OF_ASC_NODE":8.606,"ARG_OF_PERICENTER":29.39,"MEAN_ANOMALY":99.6053,"EPHEMERIS_TYPE":0,"CLASSIFICATION_TYPE":"U","NORAD_CAT_ID":26477,"ELEMENT_SET_NO":999,"REV_AT_EPOCH":9369,"BSTAR":0,"MEAN_MOTION_DOT":-3.02e-6,"MEAN_MOTION_DDOT":0},{"OBJECT_NAME":"NSS-11","OBJECT_ID":"2000-059A","EPOCH":"2026-04-05T12:44:38.579712","MEAN_MOTION":1.00271996,"ECCENTRICITY":0.000316,"INCLINATION":1.939,"RA_OF_ASC_NODE":82.2296,"ARG_OF_PERICENTER":297.0832,"MEAN_ANOMALY":181.674,"EPHEMERIS_TYPE":0,"CLASSIFICATION_TYPE":"U","NORAD_CAT_ID":26554,"ELEMENT_SET_NO":999,"REV_AT_EPOCH":4056,"BSTAR":0,"MEAN_MOTION_DOT":2.7e-7,"MEAN_MOTION_DDOT":0},{"OBJECT_NAME":"USA 153","OBJECT_ID":"2000-065A","EPOCH":"2026-04-05T04:33:38.649888","MEAN_MOTION":1.00274331,"ECCENTRICITY":0.00035457,"INCLINATION":11.5011,"RA_OF_ASC_NODE":36.0161,"ARG_OF_PERICENTER":20.5118,"MEAN_ANOMALY":339.8869,"EPHEMERIS_TYPE":0,"CLASSIFICATION_TYPE":"U","NORAD_CAT_ID":26575,"ELEMENT_SET_NO":999,"REV_AT_EPOCH":3219,"BSTAR":0,"MEAN_MOTION_DOT":-3.21e-6,"MEAN_MOTION_DDOT":0},{"OBJECT_NAME":"AMC-6","OBJECT_ID":"2000-067A","EPOCH":"2026-04-05T12:06:13.667904","MEAN_MOTION":1.0027023,"ECCENTRICITY":0.00036809,"INCLINATION":0.0636,"RA_OF_ASC_NODE":59.0249,"ARG_OF_PERICENTER":329.7793,"MEAN_ANOMALY":211.5009,"EPHEMERIS_TYPE":0,"CLASSIFICATION_TYPE":"U","NORAD_CAT_ID":26580,"ELEMENT_SET_NO":999,"REV_AT_EPOCH":9316,"BSTAR":0,"MEAN_MOTION_DOT":9.0e-7,"MEAN_MOTION_DDOT":0},{"OBJECT_NAME":"USA 157 (MILSTAR-2 2)","OBJECT_ID":"2001-009A","EPOCH":"2026-04-05T11:44:17.183328","MEAN_MOTION":1.00268177,"ECCENTRICITY":0.0037469,"INCLINATION":11.4641,"RA_OF_ASC_NODE":20.2073,"ARG_OF_PERICENTER":181.6456,"MEAN_ANOMALY":18.0076,"EPHEMERIS_TYPE":0,"CLASSIFICATION_TYPE":"U","NORAD_CAT_ID":26715,"ELEMENT_SET_NO":999,"REV_AT_EPOCH":3221,"BSTAR":0,"MEAN_MOTION_DOT":1.11e-6,"MEAN_MOTION_DDOT":0},{"OBJECT_NAME":"TITAN 4 CENTAUR R/B","OBJECT_ID":"2001-009B","EPOCH":"2026-03-31T14:36:26.038944","MEAN_MOTION":1.00465344,"ECCENTRICITY":0.00135431,"INCLINATION":12.569,"RA_OF_ASC_NODE":12.8598,"ARG_OF_PERICENTER":143.8283,"MEAN_ANOMALY":216.2324,"EPHEMERIS_TYPE":0,"CLASSIFICATION_TYPE":"U","NORAD_CAT_ID":26716,"ELEMENT_SET_NO":999,"REV_AT_EPOCH":2547,"BSTAR":0,"MEAN_MOTION_DOT":-2.46e-6,"MEAN_MOTION_DDOT":0},{"OBJECT_NAME":"IUS R/B(2)","OBJECT_ID":"2001-033D","EPOCH":"2026-04-04T15:44:25.234368","MEAN_MOTION":0.99897006,"ECCENTRICITY":0.00072112,"INCLINATION":12.8536,"RA_OF_ASC_NODE":17.2403,"ARG_OF_PERICENTER":4.696,"MEAN_ANOMALY":355.2658,"EPHEMERIS_TYPE":0,"CLASSIFICATION_TYPE":"U","NORAD_CAT_ID":26883,"ELEMENT_SET_NO":999,"REV_AT_EPOCH":2505,"BSTAR":0,"MEAN_MOTION_DOT":-2.93e-6,"MEAN_MOTION_DDOT":0},{"OBJECT_NAME":"COSMOS 2379","OBJECT_ID":"2001-037A","EPOCH":"2026-04-04T14:24:51.674112","MEAN_MOTION":1.00306619,"ECCENTRICITY":0.0005863,"INCLINATION":13.2009,"RA_OF_ASC_NODE":14.8153,"ARG_OF_PERICENTER":246.4407,"MEAN_ANOMALY":276.9314,"EPHEMERIS_TYPE":0,"CLASSIFICATION_TYPE":"U","NORAD_CAT_ID":26892,"ELEMENT_SET_NO":999,"REV_AT_EPOCH":9012,"BSTAR":0,"MEAN_MOTION_DOT":-3.51e-6,"MEAN_MOTION_DDOT":0},{"OBJECT_NAME":"SL-12 R/B(2)","OBJECT_ID":"2001-037D","EPOCH":"2026-04-05T13:34:30.139968","MEAN_MOTION":1.00186763,"ECCENTRICITY":0.0019835,"INCLINATION":13.1966,"RA_OF_ASC_NODE":15.0366,"ARG_OF_PERICENTER":77.3336,"MEAN_ANOMALY":32.4654,"EPHEMERIS_TYPE":0,"CLASSIFICATION_TYPE":"U","NORAD_CAT_ID":26895,"ELEMENT_SET_NO":999,"REV_AT_EPOCH":9007,"BSTAR":0,"MEAN_MOTION_DOT":-2.02e-6,"MEAN_MOTION_DDOT":0},{"OBJECT_NAME":"INTELSAT 902 (IS-902)","OBJECT_ID":"2001-039A","EPOCH":"2026-04-05T06:39:45.739008","MEAN_MOTION":1.0027151,"ECCENTRICITY":0.0004478,"INCLINATION":5.9343,"RA_OF_ASC_NODE":72.6579,"ARG_OF_PERICENTER":299.8835,"MEAN_ANOMALY":230.8896,"EPHEMERIS_TYPE":0,"CLASSIFICATION_TYPE":"U","NORAD_CAT_ID":26900,"ELEMENT_SET_NO":999,"REV_AT_EPOCH":8996,"BSTAR":0,"MEAN_MOTION_DOT":-2.8e-6,"MEAN_MOTION_DDOT":0},{"OBJECT_NAME":"SL-12 R/B(2)","OBJECT_ID":"2001-045D","EPOCH":"2026-04-04T19:58:44.823072","MEAN_MOTION":1.00208583,"ECCENTRICITY":0.00263439,"INCLINATION":13.8329,"RA_OF_ASC_NODE":12.6409,"ARG_OF_PERICENTER":26.4454,"MEAN_ANOMALY":166.994,"EPHEMERIS_TYPE":0,"CLASSIFICATION_TYPE":"U","NORAD_CAT_ID":26939,"ELEMENT_SET_NO":999,"REV_AT_EPOCH":8999,"BSTAR":0,"MEAN_MOTION_DOT":-7.7e-7,"MEAN_MOTION_DDOT":0}]
